ONEWEB-0012             
1 44057U 19010A   26197.13200586  .00000035  00000+0  58461-4 0  9996
2 44057  87.9077 223.0353 0001644  94.6878 265.4441 13.16593889355377
ONEWEB-0010             
1 44058U 19010B   26197.61333841 -.00000001  00000+0 -35194-4 0  9994
2 44058  87.9079 222.9358 0002309  99.9200 260.2192 13.16594232355480
ONEWEB-0008             
1 44059U 19010C   26197.56266955 -.00000042  00000+0 -14385-3 0  9993
2 44059  87.9079 222.9411 0002176  86.3000 273.8379 13.16593745355598
ONEWEB-0007             
1 44060U 19010D   26197.62112113  .00000022  00000+0  25455-4 0  9995
2 44060  87.8985 253.3564 0001966 105.6722 254.4625 13.15548413355246
ONEWEB-0006             
1 44061U 19010E   26197.62506315 -.00000010  00000+0 -60615-4 0  9993
2 44061  87.8996 253.3226 0002263  96.9977 263.1410 13.15550907355294
ONEWEB-0011             
1 44062U 19010F   26197.66943301  .00000093  00000+0  21182-3 0  9992
2 44062  87.8994 253.3241 0002277  95.7494 264.3896 13.15549312355295
ONEWEB-0013             
1 45131U 20008A   26197.58820197  .00000173  00000+0  46531-3 0  9991
2 45131  87.8487  46.8889 0000916  65.5860 294.5362 13.09454715309919
ONEWEB-0017             
1 45132U 20008B   26197.55011097 -.00000229  00000+0 -69142-3 0  9997
2 45132  87.8809  30.4162 0002025  92.4332 267.7027 13.10372173311795
ONEWEB-0020             
1 45133U 20008C   26197.59593044  .00000567  00000+0  15881-2 0  9992
2 45133  87.8822  30.4067 0001833  87.3160 272.8177 13.10374126312191
ONEWEB-0021             
1 45134U 20008D   26197.53483650  .00000508  00000+0  14198-2 0  9993
2 45134  87.8812  30.4332 0001756  91.3513 268.7815 13.10370027312499
ONEWEB-0023             
1 45136U 20008F   26197.54586100 -.00000009  00000+0 -63393-4 0  9991
2 45136  87.8817  30.4151 0001801  82.7108 277.4224 13.10368739311925
ONEWEB-0024             
1 45137U 20008G   26197.59436255  .00000551  00000+0  15411-2 0  9998
2 45137  87.8829  30.3991 0001856  89.7953 270.3387 13.10374342312093
ONEWEB-0025             
1 45138U 20008H   26197.59408888  .00000498  00000+0  13916-2 0  9998
2 45138  87.8829  30.3890 0002199  79.9685 280.1690 13.10374728312427
ONEWEB-0026             
1 45139U 20008J   26197.53281818 -.00000302  00000+0 -88655-3 0  9994
2 45139  87.8884  15.2239 0001993  91.7114 268.4242 13.11418502314950
ONEWEB-0028             
1 45140U 20008K   26197.50823867 -.00000193  00000+0 -57995-3 0  9990
2 45140  87.8877  15.2358 0001285  86.3008 273.8267 13.11414704312463
ONEWEB-0032             
1 45141U 20008L   26197.55194485 -.00000302  00000+0 -90256-3 0  9992
2 45141  87.8813  30.4178 0001438  78.6079 281.5210 13.10370775312142
ONEWEB-0033             
1 45142U 20008M   26197.52635940  .00000734  00000+0  20662-2 0  9996
2 45142  87.8811  30.4288 0002274  95.5559 264.5827 13.10372096312056
ONEWEB-0035             
1 45143U 20008N   26197.62320655 -.00000053  00000+0 -18939-3 0  9993
2 45143  87.8810  30.4030 0001836  91.1026 269.0312 13.10373583311796
ONEWEB-0036             
1 45144U 20008P   26197.52455036  .00000727  00000+0  20474-2 0  9997
2 45144  87.8831  30.4399 0001722  81.8225 278.3098 13.10374751312208
ONEWEB-0038             
1 45145U 20008Q   26197.54313664  .00000057  00000+0  12537-3 0  9998
2 45145  87.8901  15.2347 0002085 141.2334 218.8944 13.11418559314179
ONEWEB-0039             
1 45146U 20008R   26197.52975557  .00000652  00000+0  18303-2 0  9999
2 45146  87.8816  30.4193 0001322  83.2058 276.9219 13.10371375312007
ONEWEB-0040             
1 45147U 20008S   26197.52295924  .00000662  00000+0  18600-2 0  9994
2 45147  87.8816  30.4311 0001844  77.7741 282.3593 13.10372916311700
ONEWEB-0043             
1 45149U 20008U   26197.52479634  .00000733  00000+0  20625-2 0  9997
2 45149  87.8821  30.4200 0001334  80.3675 279.7603 13.10375954312028
ONEWEB-0044             
1 45150U 20008V   26197.55350066 -.00000328  00000+0 -97548-3 0  9990
2 45150  87.8821  30.4161 0001730  85.7941 274.3384 13.10373121312325
ONEWEB-0045             
1 45151U 20008W   26197.53790771 -.00000143  00000+0 -43972-3 0  9997
2 45151  87.8893  15.2168 0001719  91.3994 268.7331 13.11418518314255
ONEWEB-0047             
1 45152U 20008X   26197.54657039 -.00000059  00000+0 -20618-3 0  9996
2 45152  87.8820  30.4166 0001917  94.4413 265.6934 13.10369236312044
ONEWEB-0048             
1 45153U 20008Y   26197.54163428  .00000182  00000+0  48440-3 0  9999
2 45153  87.8811  30.4362 0001736  92.8698 267.2627 13.10370783311651
ONEWEB-0049             
1 45154U 20008Z   26197.62122622  .00000078  00000+0  18789-3 0  9997
2 45154  87.8809  30.4095 0001886  76.4916 283.6421 13.10369155311889
ONEWEB-0051             
1 45155U 20008AA  26197.53621095 -.00000157  00000+0 -47773-3 0  9991
2 45155  87.8887  15.2226 0001843  90.5286 269.6053 13.11419571314936
ONEWEB-0052             
1 45156U 20008AB  26197.56551463 -.00000661  00000+0 -19301-2 0  9991
2 45156  87.8821  30.4086 0001737  76.2832 283.8488 13.10375109311785
ONEWEB-0053             
1 45157U 20008AC  26197.59762330  .00000581  00000+0  16274-2 0  9997
2 45157  87.8814  30.4215 0001458  77.3597 282.7694 13.10373847311764
