OBJECT_NAME,OBJECT_ID,EPOCH,MEAN_MOTION,ECCENTRICITY,INCLINATION,RA_OF_ASC_NODE,ARG_OF_PERICENTER,MEAN_ANOMALY,EPHEMERIS_TYPE,CLASSIFICATION_TYPE,NORAD_CAT_ID,ELEMENT_SET_NO,REV_AT_EPOCH,BSTAR,MEAN_MOTION_DOT,MEAN_MOTION_DDOT
ONEWEB-0012,2019-010A,2026-07-16T03:10:05.306304,13.16593889,.00016445,87.9077,223.0353,94.6878,265.4441,0,U,44057,999,35537,.58461006E-4,.35E-6,0
ONEWEB-0010,2019-010B,2026-07-16T14:43:12.438624,13.16594232,.0002309,87.9079,222.9358,99.9200,260.2192,0,U,44058,999,35548,-.35194E-4,-.1E-7,0
ONEWEB-0008,2019-010C,2026-07-16T13:30:14.649120,13.16593745,.0002176,87.9079,222.9411,86.3000,273.8379,0,U,44059,999,35559,-.14385E-3,-.42E-6,0
ONEWEB-0007,2019-010D,2026-07-16T14:54:24.865632,13.15548413,.0001966,87.8985,253.3564,105.6722,254.4625,0,U,44060,999,35524,.25455E-4,.22E-6,0
ONEWEB-0006,2019-010E,2026-07-16T15:00:05.456160,13.15550907,.0002263,87.8996,253.3226,96.9977,263.1410,0,U,44061,999,35529,-.60615E-4,-.1E-6,0
ONEWEB-0011,2019-010F,2026-07-16T16:03:59.012064,13.15549312,.0002277,87.8994,253.3241,95.7494,264.3896,0,U,44062,999,35529,.21182E-3,.93E-6,0
ONEWEB-0013,2020-008A,2026-07-16T14:07:00.650208,13.09454715,.0000916,87.8487,46.8889,65.5860,294.5362,0,U,45131,999,30991,.46531E-3,.173E-5,0
ONEWEB-0017,2020-008B,2026-07-16T13:12:09.587808,13.10372173,.0002025,87.8809,30.4162,92.4332,267.7027,0,U,45132,999,31179,-.69142E-3,-.229E-5,0
ONEWEB-0020,2020-008C,2026-07-16T14:18:08.390016,13.10374126,.0001833,87.8822,30.4067,87.3160,272.8177,0,U,45133,999,31219,.15881E-2,.567E-5,0
ONEWEB-0021,2020-008D,2026-07-16T12:50:09.873600,13.10370027,.0001756,87.8812,30.4332,91.3513,268.7815,0,U,45134,999,31249,.14198E-2,.508E-5,0
ONEWEB-0023,2020-008F,2026-07-16T13:06:02.390400,13.10368739,.0001801,87.8817,30.4151,82.7108,277.4224,0,U,45136,999,31192,-.63393E-4,-.9E-7,0
ONEWEB-0024,2020-008G,2026-07-16T14:15:52.924320,13.10374342,.0001856,87.8829,30.3991,89.7953,270.3387,0,U,45137,999,31209,.15411E-2,.551E-5,0
ONEWEB-0025,2020-008H,2026-07-16T14:15:29.279232,13.10374728,.0002199,87.8829,30.3890,79.9685,280.1690,0,U,45138,999,31242,.13916E-2,.498E-5,0
ONEWEB-0026,2020-008J,2026-07-16T12:47:15.490752,13.11418502,.0001993,87.8884,15.2239,91.7114,268.4242,0,U,45139,999,31495,-.88655E-3,-.302E-5,0
ONEWEB-0028,2020-008K,2026-07-16T12:11:51.821088,13.11414704,.0001285,87.8877,15.2358,86.3008,273.8267,0,U,45140,999,31246,-.57995E-3,-.193E-5,0
ONEWEB-0032,2020-008L,2026-07-16T13:14:48.035040,13.10370775,.0001438,87.8813,30.4178,78.6079,281.5210,0,U,45141,999,31214,-.90256E-3,-.302E-5,0
ONEWEB-0033,2020-008M,2026-07-16T12:37:57.452160,13.10372096,.0002274,87.8811,30.4288,95.5559,264.5827,0,U,45142,999,31205,.20662E-2,.734E-5,0
ONEWEB-0035,2020-008N,2026-07-16T14:57:25.045920,13.10373583,.0001836,87.8810,30.4030,91.1026,269.0312,0,U,45143,999,31179,-.18939E-3,-.53E-6,0
ONEWEB-0036,2020-008P,2026-07-16T12:35:21.151104,13.10374751,.0001722,87.8831,30.4399,81.8225,278.3098,0,U,45144,999,31220,.20474E-2,.727E-5,0
ONEWEB-0038,2020-008Q,2026-07-16T13:02:07.005696,13.11418559,.0002085,87.8901,15.2347,141.2334,218.8944,0,U,45145,999,31417,.12537E-3,.57E-6,0
ONEWEB-0039,2020-008R,2026-07-16T12:42:50.881248,13.10371375,.0001322,87.8816,30.4193,83.2058,276.9219,0,U,45146,999,31200,.18303E-2,.652E-5,0
ONEWEB-0040,2020-008S,2026-07-16T12:33:03.678336,13.10372916,.0001844,87.8816,30.4311,77.7741,282.3593,0,U,45147,999,31170,.186E-2,.662E-5,0
ONEWEB-0043,2020-008U,2026-07-16T12:35:42.403776,13.10375954,.0001334,87.8821,30.4200,80.3675,279.7603,0,U,45149,999,31202,.20625E-2,.733E-5,0
ONEWEB-0044,2020-008V,2026-07-16T13:17:02.457024,13.10373121,.000173,87.8821,30.4161,85.7941,274.3384,0,U,45150,999,31232,-.97548E-3,-.328E-5,0
ONEWEB-0045,2020-008W,2026-07-16T12:54:35.226144,13.11418518,.0001719,87.8893,15.2168,91.3994,268.7331,0,U,45151,999,31425,-.43972E-3,-.143E-5,0
ONEWEB-0047,2020-008X,2026-07-16T13:07:03.681696,13.10369236,.0001917,87.8820,30.4166,94.4413,265.6934,0,U,45152,999,31204,-.20618E-3,-.59E-6,0
ONEWEB-0048,2020-008Y,2026-07-16T12:59:57.201792,13.10370783,.0001736,87.8811,30.4362,92.8698,267.2627,0,U,45153,999,31165,.4844E-3,.182E-5,0
ONEWEB-0049,2020-008Z,2026-07-16T14:54:33.945408,13.10369155,.0001886,87.8809,30.4095,76.4916,283.6421,0,U,45154,999,31188,.18789E-3,.78E-6,0
ONEWEB-0051,2020-008AA,2026-07-16T12:52:08.626080,13.11419571,.0001843,87.8887,15.2226,90.5286,269.6053,0,U,45155,999,31493,-.47773E-3,-.157E-5,0
ONEWEB-0052,2020-008AB,2026-07-16T13:34:20.464032,13.10375109,.0001737,87.8821,30.4086,76.2832,283.8488,0,U,45156,999,31178,-.19301E-2,-.661E-5,0
ONEWEB-0053,2020-008AC,2026-07-16T14:20:34.653120,13.10373847,.0001458,87.8814,30.4215,77.3597,282.7694,0,U,45157,999,31176,.16274E-2,.581E-5,0
